STARLINK-6334           
1 57238U 23094W   26068.21681556  .00000101  00000+0  22546-4 0  9993
2 57238  43.0061  20.3390 0001720 259.4052 100.6597 15.02533262147194
SEDNA-1                 
1 60580U 24149DS  26068.76583836  .00008721  00000+0  60834-3 0  9998
2 60580  97.6673 149.7617 0008344 330.8481  29.2278 15.05597965 85421
